OBJECT_NAME,OBJECT_ID,EPOCH,MEAN_MOTION,ECCENTRICITY,INCLINATION,RA_OF_ASC_NODE,ARG_OF_PERICENTER,MEAN_ANOMALY,EPHEMERIS_TYPE,CLASSIFICATION_TYPE,NORAD_CAT_ID,ELEMENT_SET_NO,REV_AT_EPOCH,BSTAR,MEAN_MOTION_DOT,MEAN_MOTION_DDOT
SAUDISAT 1C (SO-50),2002-058C,2024-07-07T21:22:04.635552,14.79104287,.0025817,64.5540,157.9068,101.6088,258.7916,0,U,27607,999,15959,.27661E-3,.1924E-4,0
SAUDISAT 2,2004-025F,2024-07-07T22:44:05.894880,14.55535542,.0024327,98.4839,163.4016,317.7915,42.1409,0,U,28371,999,6256,.14167E-3,.571E-5,0
FLYING LAPTOP,2017-042G,2024-07-08T04:40:48.343872,14.95280167,.0012996,97.3867,9.9231,14.0847,346.0734,0,U,42831,999,38027,.23292E-3,.2515E-4,0
SALSAT,2020-068K,2024-07-08T04:02:26.176992,15.13478519,.0012176,97.8174,149.9933,237.2542,122.7515,0,U,46495,999,20748,.37975E-3,.6737E-4,0
